[
    {
        "CCSDS_OMM_VERS": "3.0",
        "COMMENT": "GENERATED VIA SPACE-TRACK.ORG API",
        "CREATION_DATE": "2025-05-04T06:26:21",
        "ORIGINATOR": "18 SPCS",
        "OBJECT_NAME": "BEIDOU 3M23",
        "OBJECT_ID": "2019-061A",
        "CENTER_NAME": "EARTH",
        "REF_FRAME": "TEME",
        "TIME_SYSTEM": "UTC",
        "MEAN_ELEMENT_THEORY": "SGP4",
        "EPOCH": "2025-05-04T01:59:11.753088",
        "MEAN_MOTION": "1.86229070",
        "ECCENTRICITY": "0.00075650",
        "INCLINATION": "54.4115",
        "RA_OF_ASC_NODE": "196.5257",
        "ARG_OF_PERICENTER": "357.5326",
        "MEAN_ANOMALY": "2.5222",
        "EPHEMERIS_TYPE": "0",
        "CLASSIFICATION_TYPE": "U",
        "NORAD_CAT_ID": "44542",
        "ELEMENT_SET_NO": "999",
        "REV_AT_EPOCH": "3817",
        "BSTAR": "0.00000000000000",
        "MEAN_MOTION_DOT": "-0.00000022",
        "MEAN_MOTION_DDOT": "0.0000000000000",
        "SEMIMAJOR_AXIS": "27906.381",
        "PERIOD": "773.241",
        "APOAPSIS": "21549.358",
        "PERIAPSIS": "21507.135",
        "OBJECT_TYPE": "PAYLOAD",
        "RCS_SIZE": "LARGE",
        "COUNTRY_CODE": "PRC",
        "LAUNCH_DATE": "2019-09-22",
        "SITE": "XSC",
        "DECAY_DATE": null,
        "FILE": "4718319",
        "GP_ID": "286812918",
        "TLE_LINE0": "0 BEIDOU 3M23",
        "TLE_LINE1": "1 44542U 19061A   25124.08277492 -.00000022  00000-0  00000+0 0  9993",
        "TLE_LINE2": "2 44542  54.4115 196.5257 0007565 357.5326   2.5222  1.86229070 38177"
    }
]